start=new Date('2023-05-06T00:00:00.000Z').valueOf();
sats=[{"OBJECT_TYPE":"PAYLOAD","INCLINATION":"53.1197","MEAN_ELEMENT_THEORY":"SGP4","REV_AT_EPOCH":"6546","ARG_OF_PERICENTER":"86.2023","TIME_SYSTEM":"UTC","GP_ID":"231295264","PERIOD":"95.643","ECCENTRICITY":"0.00013090","TLE_LINE2":"2 51966  53.1197  13.1517 0001309  86.2023 273.9116 15.05594961 65462","MEAN_MOTION":"15.05594961","TLE_LINE1":"1 51966U 22025L   23126.00443398  .00001456  00000-0  11901-3 0  9994","FILE":"3901977","RCS_SIZE":"LARGE","SEMIMAJOR_AXIS":"6927.817","MEAN_MOTION_DDOT":"0.0000000000000","EPOCH":"2023-05-06T00:06:23.095872","BSTAR":"0.00011901000000","SITE":"AFETR","MEAN_MOTION_DOT":"0.00001456","DECAY_DATE":null,"REF_FRAME":"TEME","LAUNCH_DATE":"2022-03-09","COUNTRY_CODE":"US","OBJECT_NAME":"STARLINK-3699","PERIAPSIS":"548.775","APOAPSIS":"550.589","CLASSIFICATION_TYPE":"U","MEAN_ANOMALY":"273.9116","NORAD_CAT_ID":"51966","OBJECT_ID":"2022-025L","EPHEMERIS_TYPE":"0","CENTER_NAME":"EARTH","ELEMENT_SET_NO":"999","RA_OF_ASC_NODE":"13.1517"},{"CENTER_NAME":"EARTH","EPHEMERIS_TYPE":"0","CLASSIFICATION_TYPE":"U","MEAN_ANOMALY":"274.7189","NORAD_CAT_ID":"51968","OBJECT_ID":"2022-025N","APOAPSIS":"543.034","RA_OF_ASC_NODE":"12.5078","ELEMENT_SET_NO":"999","OBJECT_NAME":"STARLINK-3681","COUNTRY_CODE":"US","REF_FRAME":"TEME","LAUNCH_DATE":"2022-03-09","DECAY_DATE":null,"PERIAPSIS":"541.380","PERIOD":"95.488","GP_ID":"231292284","MEAN_MOTION_DDOT":"0.0000000000000","EPOCH":"2023-05-05T21:26:34.588896","SITE":"AFETR","BSTAR":"0.00001050800000","MEAN_MOTION_DOT":"-0.00000122","RCS_SIZE":"LARGE","FILE":"3901847","SEMIMAJOR_AXIS":"6920.342","TLE_LINE2":"2 51968  53.1154  12.5078 0001195  85.3938 274.7189 15.08035162 65476","TLE_LINE1":"1 51968U 22025N   23125.89345589 -.00000122  00000-0  10508-4 0  9998","MEAN_MOTION":"15.08035162","ECCENTRICITY":"0.00011950","REV_AT_EPOCH":"6547","MEAN_ELEMENT_THEORY":"SGP4","INCLINATION":"53.1154","OBJECT_TYPE":"PAYLOAD","ARG_OF_PERICENTER":"85.3938","TIME_SYSTEM":"UTC"},{"TIME_SYSTEM":"UTC","ARG_OF_PERICENTER":"92.6232","INCLINATION":"53.0589","OBJECT_TYPE":"PAYLOAD","MEAN_ELEMENT_THEORY":"SGP4","REV_AT_EPOCH":"6549","TLE_LINE1":"1 51969U 22025P   23125.99411118 -.00001947  00000-0 -10672-3 0  9990","TLE_LINE2":"2 51969  53.0589  11.7273 0001261  92.6232 267.4902 15.08037212 65490","MEAN_MOTION":"15.08037212","ECCENTRICITY":"0.00012610","SITE":"AFETR","MEAN_MOTION_DOT":"-0.00001947","BSTAR":"-0.00010672000000","MEAN_MOTION_DDOT":"0.0000000000000","EPOCH":"2023-05-05T23:51:31.205952","FILE":"3901978","RCS_SIZE":"LARGE","SEMIMAJOR_AXIS":"6920.335","PERIOD":"95.488","GP_ID":"231295134","PERIAPSIS":"541.328","LAUNCH_DATE":"2022-03-09","REF_FRAME":"TEME","DECAY_DATE":null,"OBJECT_NAME":"STARLINK-3680","COUNTRY_CODE":"US","RA_OF_ASC_NODE":"11.7273","ELEMENT_SET_NO":"999","OBJECT_ID":"2022-025P","NORAD_CAT_ID":"51969","CLASSIFICATION_TYPE":"U","MEAN_ANOMALY":"267.4902","APOAPSIS":"543.073","CENTER_NAME":"EARTH","EPHEMERIS_TYPE":"0"},{"INCLINATION":"53.1192","OBJECT_TYPE":"PAYLOAD","MEAN_ELEMENT_THEORY":"SGP4","REV_AT_EPOCH":"6546","ARG_OF_PERICENTER":"108.7728","TIME_SYSTEM":"UTC","PERIOD":"95.641","GP_ID":"231295137","TLE_LINE2":"2 51970  53.1192  13.2007 0000921 108.7728 251.3361 15.05629861 65468","MEAN_MOTION":"15.05629861","TLE_LINE1":"1 51970U 22025Q   23125.99371812 -.00010322  00000-0 -68940-3 0  9996","ECCENTRICITY":"0.00009210","MEAN_MOTION_DDOT":"0.0000000000000","EPOCH":"2023-05-05T23:50:57.245568","MEAN_MOTION_DOT":"-0.00010322","SITE":"AFETR","BSTAR":"-0.00068940000000","FILE":"3901978","RCS_SIZE":"LARGE","SEMIMAJOR_AXIS":"6927.710","REF_FRAME":"TEME","LAUNCH_DATE":"2022-03-09","DECAY_DATE":null,"OBJECT_NAME":"STARLINK-3677","COUNTRY_CODE":"US","PERIAPSIS":"548.937","MEAN_ANOMALY":"251.3361","CLASSIFICATION_TYPE":"U","NORAD_CAT_ID":"51970","OBJECT_ID":"2022-025Q","APOAPSIS":"550.213","CENTER_NAME":"EARTH","EPHEMERIS_TYPE":"0","ELEMENT_SET_NO":"999","RA_OF_ASC_NODE":"13.2007"},{"RA_OF_ASC_NODE":"12.1715","ELEMENT_SET_NO":"999","OBJECT_ID":"2022-025R","NORAD_CAT_ID":"51971","MEAN_ANOMALY":"274.2336","CLASSIFICATION_TYPE":"U","APOAPSIS":"542.945","CENTER_NAME":"EARTH","EPHEMERIS_TYPE":"0","PERIAPSIS":"541.423","LAUNCH_DATE":"2022-03-09","REF_FRAME":"TEME","DECAY_DATE":null,"OBJECT_NAME":"STARLINK-3669","COUNTRY_CODE":"US","TLE_LINE2":"2 51971  53.1136  12.1715 0001100  85.8780 274.2336 15.08042524 65491","MEAN_MOTION":"15.08042524","TLE_LINE1":"1 51971U 22025R   23125.96737836  .00002825  00000-0  19967-3 0  9998","ECCENTRICITY":"0.00011000","MEAN_MOTION_DOT":"0.00002825","SITE":"AFETR","BSTAR":"0.00019967000000","EPOCH":"2023-05-05T23:13:01.490304","MEAN_MOTION_DDOT":"0.0000000000000","SEMIMAJOR_AXIS":"6920.319","FILE":"3901978","RCS_SIZE":"LARGE","PERIOD":"95.488","GP_ID":"231295135","TIME_SYSTEM":"UTC","ARG_OF_PERICENTER":"85.8780","INCLINATION":"53.1136","OBJECT_TYPE":"PAYLOAD","REV_AT_EPOCH":"6549","MEAN_ELEMENT_THEORY":"SGP4"},{"PERIAPSIS":"548.848","REF_FRAME":"TEME","LAUNCH_DATE":"2022-03-09","DECAY_DATE":null,"OBJECT_NAME":"STARLINK-3671","COUNTRY_CODE":"US","RA_OF_ASC_NODE":"17.6621","ELEMENT_SET_NO":"999","CLASSIFICATION_TYPE":"U","MEAN_ANOMALY":"276.9501","NORAD_CAT_ID":"51972","OBJECT_ID":"2022-025S","APOAPSIS":"550.559","CENTER_NAME":"EARTH","EPHEMERIS_TYPE":"0","ARG_OF_PERICENTER":"83.1629","TIME_SYSTEM":"UTC","INCLINATION":"53.1258","OBJECT_TYPE":"PAYLOAD","REV_AT_EPOCH":"6532","MEAN_ELEMENT_THEORY":"SGP4","MEAN_MOTION":"15.05587983","TLE_LINE2":"2 51972  53.1258  17.6621 0001235  83.1629 276.9501 15.05587983 65320","TLE_LINE1":"1 51972U 22025S   23124.98686942  .00000733  00000-0  69456-4 0  9996","ECCENTRICITY":"0.00012350","EPOCH":"2023-05-04T23:41:05.517888","MEAN_MOTION_DDOT":"0.0000000000000","MEAN_MOTION_DOT":"0.00000733","SITE":"AFETR","BSTAR":"0.00006945600000","SEMIMAJOR_AXIS":"6927.838","FILE":"3901180","RCS_SIZE":"LARGE","PERIOD":"95.644","GP_ID":"231249552"},{"REV_AT_EPOCH":"6546","MEAN_ELEMENT_THEORY":"SGP4","OBJECT_TYPE":"PAYLOAD","INCLINATION":"53.1204","ARG_OF_PERICENTER":"99.2841","TIME_SYSTEM":"UTC","GP_ID":"231295270","PERIOD":"95.641","SEMIMAJOR_AXIS":"6927.717","FILE":"3901978","RCS_SIZE":"LARGE","EPOCH":"2023-05-05T23:56:04.332768","MEAN_MOTION_DDOT":"0.0000000000000","MEAN_MOTION_DOT":"-0.00009257","SITE":"AFETR","BSTAR":"-0.00061627000000","ECCENTRICITY":"0.00010590","TLE_LINE2":"2 51973  53.1204  13.1824 0001059  99.2841 260.8268 15.05627423 65467","TLE_LINE1":"1 51973U 22025T   23125.99727237 -.00009257  00000-0 -61627-3 0  9995","MEAN_MOTION":"15.05627423","COUNTRY_CODE":"US","OBJECT_NAME":"STARLINK-3679","DECAY_DATE":null,"REF_FRAME":"TEME","LAUNCH_DATE":"2022-03-09","PERIAPSIS":"548.849","EPHEMERIS_TYPE":"0","CENTER_NAME":"EARTH","APOAPSIS":"550.316","MEAN_ANOMALY":"260.8268","CLASSIFICATION_TYPE":"U","NORAD_CAT_ID":"51973","OBJECT_ID":"2022-025T","RA_OF_ASC_NODE":"13.1824","ELEMENT_SET_NO":"999"},{"MEAN_ELEMENT_THEORY":"SGP4","REV_AT_EPOCH":"6530","OBJECT_TYPE":"PAYLOAD","INCLINATION":"53.1275","TIME_SYSTEM":"UTC","ARG_OF_PERICENTER":"88.9005","GP_ID":"231249365","PERIOD":"95.644","FILE":"3901170","RCS_SIZE":"LARGE","SEMIMAJOR_AXIS":"6927.863","SITE":"AFETR","BSTAR":"0.00011191000000","MEAN_MOTION_DOT":"0.00001352","MEAN_MOTION_DDOT":"0.0000000000000","EPOCH":"2023-05-04T23:35:44.236896","ECCENTRICITY":"0.00009850","TLE_LINE2":"2 51974  53.1275  17.6777 0000985  88.9005 271.2097 15.05579863 65309","MEAN_MOTION":"15.05579863","TLE_LINE1":"1 51974U 22025U   23124.98315089  .00001352  00000-0  11191-3 0  9999","COUNTRY_CODE":"US","OBJECT_NAME":"STARLINK-3672","DECAY_DATE":null,"LAUNCH_DATE":"2022-03-09","REF_FRAME":"TEME","PERIAPSIS":"549.046","EPHEMERIS_TYPE":"0","CENTER_NAME":"EARTH","APOAPSIS":"550.411","OBJECT_ID":"2022-025U","NORAD_CAT_ID":"51974","MEAN_ANOMALY":"271.2097","CLASSIFICATION_TYPE":"U","RA_OF_ASC_NODE":"17.6777","ELEMENT_SET_NO":"999"},{"ELEMENT_SET_NO":"999","RA_OF_ASC_NODE":"10.5592","CENTER_NAME":"EARTH","EPHEMERIS_TYPE":"0","NORAD_CAT_ID":"51975","OBJECT_ID":"2022-025V","CLASSIFICATION_TYPE":"U","MEAN_ANOMALY":"275.8495","APOAPSIS":"535.601","PERIAPSIS":"533.749","OBJECT_NAME":"STARLINK-3674","COUNTRY_CODE":"US","LAUNCH_DATE":"2022-03-09","REF_FRAME":"TEME","DECAY_DATE":null,"SITE":"AFETR","MEAN_MOTION_DOT":"0.00000428","BSTAR":"0.00004324600000","MEAN_MOTION_DDOT":"0.0000000000000","EPOCH":"2023-05-06T00:06:43.764480","FILE":"3901983","SEMIMAJOR_AXIS":"6912.810","RCS_SIZE":"LARGE","TLE_LINE1":"1 51975U 22025V   23126.00467320  .00000428  00000-0  43246-4 0  9991","TLE_LINE2":"2 51975  53.1174  10.5592 0001340  84.2649 275.8495 15.10500337 65526","MEAN_MOTION":"15.10500337","ECCENTRICITY":"0.00013400","PERIOD":"95.333","GP_ID":"231295172","TIME_SYSTEM":"UTC","ARG_OF_PERICENTER":"84.2649","MEAN_ELEMENT_THEORY":"SGP4","REV_AT_EPOCH":"6552","INCLINATION":"53.1174","OBJECT_TYPE":"PAYLOAD"},{"TIME_SYSTEM":"UTC","ARG_OF_PERICENTER":"93.1474","MEAN_ELEMENT_THEORY":"SGP4","REV_AT_EPOCH":"6536","INCLINATION":"53.2186","OBJECT_TYPE":"PAYLOAD","BSTAR":"0.00002900900000","SITE":"AFETR","MEAN_MOTION_DOT":"0.00000174","MEAN_MOTION_DDOT":"0.0000000000000","EPOCH":"2023-05-05T23:23:32.942976","SEMIMAJOR_AXIS":"6917.896","FILE":"3901983","RCS_SIZE":"LARGE","TLE_LINE1":"1 51976U 22025W   23125.97468684  .00000174  00000-0  29009-4 0  9990","TLE_LINE2":"2 51976  53.2186  22.0915 0001180  93.1474 266.9653 15.08834847 65367","MEAN_MOTION":"15.08834847","ECCENTRICITY":"0.00011800","PERIOD":"95.438","GP_ID":"231295177","PERIAPSIS":"538.945","OBJECT_NAME":"STARLINK-3663","COUNTRY_CODE":"US","LAUNCH_DATE":"2022-03-09","REF_FRAME":"TEME","DECAY_DATE":null,"ELEMENT_SET_NO":"999","RA_OF_ASC_NODE":"22.0915","CENTER_NAME":"EARTH","EPHEMERIS_TYPE":"0","NORAD_CAT_ID":"51976","OBJECT_ID":"2022-025W","MEAN_ANOMALY":"266.9653","CLASSIFICATION_TYPE":"U","APOAPSIS":"540.577"}];
